[
  {
    "code": "TAP",
    "name_en": "Taplejung",
    "name_ne": "ताप्लेजुङ",
    "province_code": "P1",
    "zone_code": "MECHI",
    "hq_en": "Phungling",
    "hq_ne": "फुङलिङ"
  },
  {
    "code": "PAN",
    "name_en": "Panchthar",
    "name_ne": "पाँचथर",
    "province_code": "P1",
    "zone_code": "MECHI",
    "hq_en": "Phidim",
    "hq_ne": "फिदिम"
  },
  {
    "code": "ILM",
    "name_en": "Ilam",
    "name_ne": "इलाम",
    "province_code": "P1",
    "zone_code": "MECHI",
    "hq_en": "Ilam",
    "hq_ne": "इलाम"
  },
  {
    "code": "JHA",
    "name_en": "Jhapa",
    "name_ne": "झापा",
    "province_code": "P1",
    "zone_code": "MECHI",
    "hq_en": "Bhadrapur",
    "hq_ne": "भद्रपुर"
  },
  {
    "code": "MOR",
    "name_en": "Morang",
    "name_ne": "मोरङ",
    "province_code": "P1",
    "zone_code": "KOSHI",
    "hq_en": "Biratnagar",
    "hq_ne": "विराटनगर"
  },
  {
    "code": "SUN",
    "name_en": "Sunsari",
    "name_ne": "सुनसरी",
    "province_code": "P1",
    "zone_code": "KOSHI",
    "hq_en": "Inaruwa",
    "hq_ne": "इनरुवा"
  },
  {
    "code": "DHK",
    "name_en": "Dhankuta",
    "name_ne": "धनकुटा",
    "province_code": "P1",
    "zone_code": "KOSHI",
    "hq_en": "Dhankuta",
    "hq_ne": "धनकुटा"
  },
  {
    "code": "TER",
    "name_en": "Terhathum",
    "name_ne": "तेह्रथुम",
    "province_code": "P1",
    "zone_code": "KOSHI",
    "hq_en": "Myanglung",
    "hq_ne": "म्याङलुङ"
  },
  {
    "code": "SAN",
    "name_en": "Sankhuwasabha",
    "name_ne": "संखुवासभा",
    "province_code": "P1",
    "zone_code": "KOSHI",
    "hq_en": "Khandbari",
    "hq_ne": "खाँदबारी"
  },
  {
    "code": "BHO",
    "name_en": "Bhojpur",
    "name_ne": "भोजपुर",
    "province_code": "P1",
    "zone_code": "SAGARMATHA",
    "hq_en": "Bhojpur",
    "hq_ne": "भोजपुर"
  },
  {
    "code": "KHO",
    "name_en": "Khotang",
    "name_ne": "खोटाङ",
    "province_code": "P1",
    "zone_code": "SAGARMATHA",
    "hq_en": "Diktel",
    "hq_ne": "दिक्तेल"
  },
  {
    "code": "OKH",
    "name_en": "Okhaldhunga",
    "name_ne": "ओखलढुंगा",
    "province_code": "P1",
    "zone_code": "SAGARMATHA",
    "hq_en": "Siddhicharan",
    "hq_ne": "सिद्धिचरण"
  },
  {
    "code": "SOL",
    "name_en": "Solukhumbu",
    "name_ne": "सोलुखुम्बु",
    "province_code": "P1",
    "zone_code": "SAGARMATHA",
    "hq_en": "Salleri",
    "hq_ne": "सल्लेरी"
  },
  {
    "code": "UDA",
    "name_en": "Udayapur",
    "name_ne": "उदयपुर",
    "province_code": "P1",
    "zone_code": "SAGARMATHA",
    "hq_en": "Gaighat",
    "hq_ne": "गाईघाट"
  },
  {
    "code": "SAP",
    "name_en": "Saptari",
    "name_ne": "सप्तरी",
    "province_code": "P2",
    "zone_code": "SAGARMATHA",
    "hq_en": "Rajbiraj",
    "hq_ne": "राजविराज"
  },
  {
    "code": "SIR",
    "name_en": "Siraha",
    "name_ne": "सिराहा",
    "province_code": "P2",
    "zone_code": "SAGARMATHA",
    "hq_en": "Siraha",
    "hq_ne": "सिराहा"
  },
  {
    "code": "DAN",
    "name_en": "Dhanusha",
    "name_ne": "धनुषा",
    "province_code": "P2",
    "zone_code": "JANAKPUR",
    "hq_en": "Janakpur",
    "hq_ne": "जनकपुर"
  },
  {
    "code": "MAH",
    "name_en": "Mahottari",
    "name_ne": "महोत्तरी",
    "province_code": "P2",
    "zone_code": "JANAKPUR",
    "hq_en": "Jaleshwar",
    "hq_ne": "जलेश्वर"
  },
  {
    "code": "SAR",
    "name_en": "Sarlahi",
    "name_ne": "सर्लाही",
    "province_code": "P2",
    "zone_code": "JANAKPUR",
    "hq_en": "Malangwa",
    "hq_ne": "मलंगवा"
  },
  {
    "code": "RAU",
    "name_en": "Rautahat",
    "name_ne": "रौतहट",
    "province_code": "P2",
    "zone_code": "JANAKPUR",
    "hq_en": "Gaur",
    "hq_ne": "गौर"
  },
  {
    "code": "BAR",
    "name_en": "Bara",
    "name_ne": "बारा",
    "province_code": "P2",
    "zone_code": "NARAYANI",
    "hq_en": "Kalaiya",
    "hq_ne": "कलैया"
  },
  {
    "code": "PAR",
    "name_en": "Parsa",
    "name_ne": "पर्सा",
    "province_code": "P2",
    "zone_code": "NARAYANI",
    "hq_en": "Birgunj",
    "hq_ne": "वीरगंज"
  },
  {
    "code": "SIN",
    "name_en": "Sindhuli",
    "name_ne": "सिन्धुली",
    "province_code": "P3",
    "zone_code": "JANAKPUR",
    "hq_en": "Sindhulimadhi",
    "hq_ne": "सिन्धुलीमाढी"
  },
  {
    "code": "RAM",
    "name_en": "Ramechhap",
    "name_ne": "रामेछाप",
    "province_code": "P3",
    "zone_code": "JANAKPUR",
    "hq_en": "Manthali",
    "hq_ne": "मन्थली"
  },
  {
    "code": "DOL",
    "name_en": "Dolakha",
    "name_ne": "दोलखा",
    "province_code": "P3",
    "zone_code": "JANAKPUR",
    "hq_en": "Charikot",
    "hq_ne": "चरिकोट"
  },
  {
    "code": "BHA",
    "name_en": "Bhaktapur",
    "name_ne": "भक्तपुर",
    "province_code": "P3",
    "zone_code": "BAGMATI",
    "hq_en": "Bhaktapur",
    "hq_ne": "भक्तपुर"
  },
  {
    "code": "DHA",
    "name_en": "Dhading",
    "name_ne": "धादिङ",
    "province_code": "P3",
    "zone_code": "BAGMATI",
    "hq_en": "Dhading Besi",
    "hq_ne": "धादिङबेसी"
  },
  {
    "code": "KTM",
    "name_en": "Kathmandu",
    "name_ne": "काठमाडौं",
    "province_code": "P3",
    "zone_code": "BAGMATI",
    "hq_en": "Kathmandu",
    "hq_ne": "काठमाडौं"
  },
  {
    "code": "KAV",
    "name_en": "Kavrepalanchok",
    "name_ne": "काभ्रेपलाञ्चोक",
    "province_code": "P3",
    "zone_code": "BAGMATI",
    "hq_en": "Dhulikhel",
    "hq_ne": "धुलिखेल"
  },
  {
    "code": "LAL",
    "name_en": "Lalitpur",
    "name_ne": "ललितपुर",
    "province_code": "P3",
    "zone_code": "BAGMATI",
    "hq_en": "Patan (Lalitpur)",
    "hq_ne": "पाटन (ललितपुर)"
  },
  {
    "code": "NUW",
    "name_en": "Nuwakot",
    "name_ne": "नुवाकोट",
    "province_code": "P3",
    "zone_code": "BAGMATI",
    "hq_en": "Bidur",
    "hq_ne": "बिदुर"
  },
  {
    "code": "RAS",
    "name_en": "Rasuwa",
    "name_ne": "रसुवा",
    "province_code": "P3",
    "zone_code": "BAGMATI",
    "hq_en": "Dhunche",
    "hq_ne": "धुन्चे"
  },
  {
    "code": "SIP",
    "name_en": "Sindhupalchok",
    "name_ne": "सिन्धुपाल्चोक",
    "province_code": "P3",
    "zone_code": "BAGMATI",
    "hq_en": "Chautara",
    "hq_ne": "चौतारा"
  },
  {
    "code": "CHT",
    "name_en": "Chitwan",
    "name_ne": "चितवन",
    "province_code": "P3",
    "zone_code": "NARAYANI",
    "hq_en": "Bharatpur",
    "hq_ne": "भरतपुर"
  },
  {
    "code": "MAK",
    "name_en": "Makwanpur",
    "name_ne": "मकवानपुर",
    "province_code": "P3",
    "zone_code": "NARAYANI",
    "hq_en": "Hetauda",
    "hq_ne": "हेटौंडा"
  },
  {
    "code": "GOR",
    "name_en": "Gorkha",
    "name_ne": "गोरखा",
    "province_code": "P4",
    "zone_code": "GANDAKI",
    "hq_en": "Gorkha",
    "hq_ne": "गोरखा"
  },
  {
    "code": "KAS",
    "name_en": "Kaski",
    "name_ne": "कास्की",
    "province_code": "P4",
    "zone_code": "GANDAKI",
    "hq_en": "Pokhara",
    "hq_ne": "पोखरा"
  },
  {
    "code": "LAM",
    "name_en": "Lamjung",
    "name_ne": "लमजुङ",
    "province_code": "P4",
    "zone_code": "GANDAKI",
    "hq_en": "Besisahar",
    "hq_ne": "बेसीशहर"
  },
  {
    "code": "MAN",
    "name_en": "Manang",
    "name_ne": "मनाङ",
    "province_code": "P4",
    "zone_code": "GANDAKI",
    "hq_en": "Chame",
    "hq_ne": "चामे"
  },
  {
    "code": "MUS",
    "name_en": "Mustang",
    "name_ne": "मुस्ताङ",
    "province_code": "P4",
    "zone_code": "DHAULAGIRI",
    "hq_en": "Jomsom",
    "hq_ne": "जोमसोम"
  },
  {
    "code": "MYG",
    "name_en": "Myagdi",
    "name_ne": "म्याग्दी",
    "province_code": "P4",
    "zone_code": "DHAULAGIRI",
    "hq_en": "Beni",
    "hq_ne": "बेनी"
  },
  {
    "code": "NAW",
    "name_en": "Nawalpur",
    "name_ne": "नवलपुर",
    "province_code": "P4",
    "zone_code": "GANDAKI",
    "hq_en": "Kawasoti",
    "hq_ne": "कावासोती"
  },
  {
    "code": "PARB",
    "name_en": "Parbat",
    "name_ne": "पर्वत",
    "province_code": "P4",
    "zone_code": "DHAULAGIRI",
    "hq_en": "Kushma",
    "hq_ne": "कुश्मा"
  },
  {
    "code": "SYN",
    "name_en": "Syangja",
    "name_ne": "स्याङ्जा",
    "province_code": "P4",
    "zone_code": "GANDAKI",
    "hq_en": "Putalibazar",
    "hq_ne": "पुतलीबजार"
  },
  {
    "code": "TAN",
    "name_en": "Tanahun",
    "name_ne": "तनहुँ",
    "province_code": "P4",
    "zone_code": "GANDAKI",
    "hq_en": "Damauli",
    "hq_ne": "दमौली"
  },
  {
    "code": "BAG",
    "name_en": "Baglung",
    "name_ne": "बागलुङ",
    "province_code": "P4",
    "zone_code": "DHAULAGIRI",
    "hq_en": "Baglung",
    "hq_ne": "बागलुङ"
  },
  {
    "code": "ARG",
    "name_en": "Arghakhanchi",
    "name_ne": "अर्घाखाँची",
    "province_code": "P5",
    "zone_code": "LUMBINI",
    "hq_en": "Sandhikharka",
    "hq_ne": "सन्धिखर्क"
  },
  {
    "code": "BAN",
    "name_en": "Banke",
    "name_ne": "बाँके",
    "province_code": "P5",
    "zone_code": "BHERI",
    "hq_en": "Nepalgunj",
    "hq_ne": "नेपालगञ्ज"
  },
  {
    "code": "BAR2",
    "name_en": "Bardiya",
    "name_ne": "बर्दिया",
    "province_code": "P5",
    "zone_code": "BHERI",
    "hq_en": "Gulariya",
    "hq_ne": "गुलरिया"
  },
  {
    "code": "DAN2",
    "name_en": "Dang",
    "name_ne": "दाङ",
    "province_code": "P5",
    "zone_code": "RAPTI",
    "hq_en": "Ghorahi",
    "hq_ne": "घोराही"
  },
  {
    "code": "GUL",
    "name_en": "Gulmi",
    "name_ne": "गुल्मी",
    "province_code": "P5",
    "zone_code": "LUMBINI",
    "hq_en": "Tamghas",
    "hq_ne": "तम्घास"
  },
  {
    "code": "KAP",
    "name_en": "Kapilvastu",
    "name_ne": "कपिलवस्तु",
    "province_code": "P5",
    "zone_code": "LUMBINI",
    "hq_en": "Taulihawa",
    "hq_ne": "तौलिहवा"
  },
  {
    "code": "NAW_W",
    "name_en": "Parasi (Nawalparasi West)",
    "name_ne": "परासी (नवलपरासी पश्चिम)",
    "province_code": "P5",
    "zone_code": "LUMBINI",
    "hq_en": "Ramgram",
    "hq_ne": "रामग्राम"
  },
  {
    "code": "PAL",
    "name_en": "Palpa",
    "name_ne": "पाल्पा",
    "province_code": "P5",
    "zone_code": "LUMBINI",
    "hq_en": "Tansen",
    "hq_ne": "तानसेन"
  },
  {
    "code": "PYU",
    "name_en": "Pyuthan",
    "name_ne": "प्युठान",
    "province_code": "P5",
    "zone_code": "RAPTI",
    "hq_en": "Pyuthan Khalanga",
    "hq_ne": "प्युठान खलङ्गा"
  },
  {
    "code": "ROL",
    "name_en": "Rolpa",
    "name_ne": "रोल्पा",
    "province_code": "P5",
    "zone_code": "RAPTI",
    "hq_en": "Liwang",
    "hq_ne": "लिवाङ"
  },
  {
    "code": "RUK_E",
    "name_en": "Rukum East",
    "name_ne": "रुकुम पूर्व",
    "province_code": "P5",
    "zone_code": "RAPTI",
    "hq_en": "Rukumkot",
    "hq_ne": "रुकुमकोट"
  },
  {
    "code": "RUP",
    "name_en": "Rupandehi",
    "name_ne": "रुपन्देही",
    "province_code": "P5",
    "zone_code": "LUMBINI",
    "hq_en": "Bhairahawa (Siddharthanagar)",
    "hq_ne": "भैरहवा (सिद्धार्थनगर)"
  },
  {
    "code": "DAI",
    "name_en": "Dailekh",
    "name_ne": "दैलेख",
    "province_code": "P6",
    "zone_code": "BHERI",
    "hq_en": "Dailekh",
    "hq_ne": "दैलेख"
  },
  {
    "code": "DOLP",
    "name_en": "Dolpa",
    "name_ne": "डोल्पा",
    "province_code": "P6",
    "zone_code": "KARNALI",
    "hq_en": "Dunai",
    "hq_ne": "दुनै"
  },
  {
    "code": "HUM",
    "name_en": "Humla",
    "name_ne": "हुम्ला",
    "province_code": "P6",
    "zone_code": "KARNALI",
    "hq_en": "Simikot",
    "hq_ne": "सिमकोट"
  },
  {
    "code": "JAJ",
    "name_en": "Jajarkot",
    "name_ne": "जाजरकोट",
    "province_code": "P6",
    "zone_code": "BHERI",
    "hq_en": "Khalanga",
    "hq_ne": "खलङ्गा"
  },
  {
    "code": "JUM",
    "name_en": "Jumla",
    "name_ne": "जुम्ला",
    "province_code": "P6",
    "zone_code": "KARNALI",
    "hq_en": "Chandannath",
    "hq_ne": "चन्दननाथ"
  },
  {
    "code": "KAL",
    "name_en": "Kalikot",
    "name_ne": "कालिकोट",
    "province_code": "P6",
    "zone_code": "KARNALI",
    "hq_en": "Manma",
    "hq_ne": "मान्मा"
  },
  {
    "code": "MUG",
    "name_en": "Mugu",
    "name_ne": "मुगु",
    "province_code": "P6",
    "zone_code": "KARNALI",
    "hq_en": "Gamgadhi",
    "hq_ne": "गमगढी"
  },
  {
    "code": "RUK_W",
    "name_en": "Rukum West",
    "name_ne": "रुकुम पश्चिम",
    "province_code": "P6",
    "zone_code": "BHERI",
    "hq_en": "Musikot (Khalanga)",
    "hq_ne": "मुसिकोट (खलङ्गा)"
  },
  {
    "code": "SAL",
    "name_en": "Salyan",
    "name_ne": "सल्यान",
    "province_code": "P6",
    "zone_code": "RAPTI",
    "hq_en": "Khalanga",
    "hq_ne": "खलङ्गा"
  },
  {
    "code": "SUR",
    "name_en": "Surkhet",
    "name_ne": "सुर्खेत",
    "province_code": "P6",
    "zone_code": "BHERI",
    "hq_en": "Birendranagar",
    "hq_ne": "वीरेन्द्रनगर"
  },
  {
    "code": "ACH",
    "name_en": "Achham",
    "name_ne": "अछाम",
    "province_code": "P7",
    "zone_code": "SETI",
    "hq_en": "Mangalsen",
    "hq_ne": "मंगलसेन"
  },
  {
    "code": "BAI",
    "name_en": "Baitadi",
    "name_ne": "बैतेडी",
    "province_code": "P7",
    "zone_code": "MAHAKALI",
    "hq_en": "Dasharathchand",
    "hq_ne": "दशरथचन्द"
  },
  {
    "code": "BAJH",
    "name_en": "Bajhang",
    "name_ne": "बझाङ",
    "province_code": "P7",
    "zone_code": "SETI",
    "hq_en": "Chainpur",
    "hq_ne": "चैनपुर"
  },
  {
    "code": "BAJU",
    "name_en": "Bajura",
    "name_ne": "बझुरा",
    "province_code": "P7",
    "zone_code": "SETI",
    "hq_en": "Martadi",
    "hq_ne": "मार्तडी"
  },
  {
    "code": "DAD",
    "name_en": "Dadeldhura",
    "name_ne": "डडेल्धुरा",
    "province_code": "P7",
    "zone_code": "MAHAKALI",
    "hq_en": "Amargadhi",
    "hq_ne": "अमरगढी"
  },
  {
    "code": "DAR",
    "name_en": "Darchula",
    "name_ne": "दार्चुला",
    "province_code": "P7",
    "zone_code": "MAHAKALI",
    "hq_en": "Khalanga",
    "hq_ne": "खलङ्गा"
  },
  {
    "code": "DOT",
    "name_en": "Doti",
    "name_ne": "डोटी",
    "province_code": "P7",
    "zone_code": "SETI",
    "hq_en": "Dipayal Silgadhi",
    "hq_ne": "दिपायल सिलगढी"
  },
  {
    "code": "KAI",
    "name_en": "Kailali",
    "name_ne": "कैलाली",
    "province_code": "P7",
    "zone_code": "SETI",
    "hq_en": "Dhangadhi",
    "hq_ne": "धनगढी"
  },
  {
    "code": "KAN",
    "name_en": "Kanchanpur",
    "name_ne": "कञ्चनपुर",
    "province_code": "P7",
    "zone_code": "MAHAKALI",
    "hq_en": "Bhimdatta",
    "hq_ne": "भीमदत्त"
  }
]