[
  {
    "slug":"kathmandu",
    "name_en":"Kathmandu",
    "name_ne":"काठमाडौं",
    "province_code":"P3",
    "zone_code":"BAGMATI",
    "district_code":"KTM",
    "lat":27.7172,
    "lng":85.3240,
    "alt_names":["KTM","Kathmandu City"],
    "tags":["capital","metro","heritage"],
    "famous":false
  },
  {
    "slug":"lalitpur",
    "name_en":"Lalitpur (Patan)",
    "name_ne":"ललितपुर (पाटन)",
    "province_code":"P3",
    "zone_code":"BAGMATI",
    "district_code":"LTP",
    "lat":27.6644,
    "lng":85.3188,
    "alt_names":["Patan","Yala"],
    "tags":["heritage","durbar_square"],
    "famous":false
  },
  {
    "slug":"bhaktapur",
    "name_en":"Bhaktapur",
    "name_ne":"भक्तपुर",
    "province_code":"P3",
    "zone_code":"BAGMATI",
    "district_code":"BKT",
    "lat":27.6710,
    "lng":85.4298,
    "alt_names":["Khwopa"],
    "tags":["heritage","durbar_square"],
    "famous":true
  },
  {
    "slug":"biratnagar",
    "name_en":"Biratnagar",
    "name_ne":"विराटनगर",
    "province_code":"P1",
    "zone_code":"KOSHI",
    "district_code":"MOR",
    "lat":26.4525,
    "lng":87.2718,
    "alt_names":[],
    "tags":["city","trade"],
    "famous":false
  },
  {
    "slug":"janakpur",
    "name_en":"Janakpur",
    "name_ne":"जनकपुर",
    "province_code":"P2",
    "zone_code":"JANAKPUR",
    "district_code":"DHA",
    "lat":26.7288,
    "lng":85.9250,
    "alt_names":["Janakpurdham"],
    "tags":["pilgrimage","heritage"],
    "famous":false
  },
  {
    "slug":"hetauda",
    "name_en":"Hetauda",
    "name_ne":"हेटौंडा",
    "province_code":"P3",
    "zone_code":"NARAYANI",
    "district_code":"MAK",
    "lat":27.4167,
    "lng":85.0333,
    "alt_names":[],
    "tags":["city"],
    "famous":false
  },
  {
    "slug":"pokhara",
    "name_en":"Pokhara",
    "name_ne":"पोखरा",
    "province_code":"P4",
    "zone_code":"GANDAKI",
    "district_code":"KAS",
    "lat":28.2096,
    "lng":83.9856,
    "alt_names":[],
    "tags":["tourism","gateway","lake"],
    "famous":false
  },
  {
    "slug":"deukhuri",
    "name_en":"Deukhuri (Bhalubang)",
    "name_ne":"देउखुरी (भालुबाङ)",
    "province_code":"P5",
    "zone_code":"RAPTI",
    "district_code":"DAN",
    "lat":27.9937,
    "lng":82.6921,
    "alt_names":["Bhalubang"],
    "tags":["city"],
    "famous":false
  }
]
